STARLINK-6191           
1 56378U 23061E   26176.71607826  .00000534  00000+0  28926-4 0  9992
2 56378  43.0026 307.5863 0001243 274.5016  85.5694 15.27578710173273
STARLINK-6173           
1 56385U 23061M   26176.67383242  .00009561  00000+0  35703-3 0  9997
2 56385  43.0043 308.1310 0000625 272.5650  87.5130 15.27530171173264
STARLINK-30354          
1 57772U 23134B   26176.66478275  .00001193  00000+0  52863-4 0  9999
2 57772  43.0027 307.8147 0001241 261.7390  98.3321 15.27581718155981
STARLINK-30527          
1 58007U 23153S   26176.66877313  .00016175  00000+0  59733-3 0  9996
2 58007  43.0049 308.5729 0000479 262.2665  97.8132 15.27508296153975
STARLINK-31594          
1 59332U 24057N   26176.74183801  .00003524  00000+0  13747-3 0  9992
2 59332  43.0042 308.1515 0001059 286.1938  73.8797 15.27591801126236
STARLINK-31572          
1 59333U 24057P   26176.74440854  .00000307  00000+0  20662-4 0  9998
2 59333  43.0033 308.1692 0000995 273.1765  86.8973 15.27579191126233
