{
  "schema": "int-temerity-real-tle-snapshot/v1",
  "source": "celestrak",
  "group": "STARLINK",
  "format": "celestrak-gp-json",
  "source_url": "https://celestrak.org/NORAD/elements/gp.php?NAME=STARLINK&FORMAT=JSON",
  "downloaded_at": "2026-06-26T09:50:33.467Z",
  "generated_at": "2026-06-26T09:50:44.363Z",
  "fingerprint": "77a8ac15",
  "shell_id": "starlink-real-43deg-490km",
  "catalog_count": 10658,
  "shell_count": 3264,
  "selected_count": 1584,
  "mean_altitude_km": 490.2,
  "mean_inclination_deg": 43.0017,
  "mean_mean_motion_rev_per_day": 15.27576648,
  "layout": {
    "planes": 72,
    "satellites_per_plane": 22,
    "selection_strategy": "largest-shell-raan-clusters-even-slot-sampling",
    "raan_cluster_threshold_deg": 1.5
  },
  "satellites": [
    {
      "satellite_id": "P63-S17",
      "norad_id": 56378,
      "satellite_name": "STARLINK-6191",
      "cospar_id": "2023-061E",
      "shell_id": "starlink-real-43deg-490km",
      "plane_id": 62,
      "slot_id": 16,
      "epoch": "2026-06-25T17:11:09.161664",
      "inclination": 43.0026,
      "raan": 307.58629999999994,
      "eccentricity": 0.0001243,
      "argument_of_perigee": 274.50160000000005,
      "mean_anomaly": 85.56939999999997,
      "mean_motion": 15.2757871,
      "bstar": 0.000028926,
      "status": "active",
      "raw_omm": {
        "OBJECT_NAME": "STARLINK-6191",
        "OBJECT_ID": "2023-061E",
        "EPOCH": "2026-06-25T17:11:09.161664",
        "MEAN_MOTION": 15.2757871,
        "ECCENTRICITY": 0.0001243,
        "INCLINATION": 43.0026,
        "RA_OF_ASC_NODE": 307.5863,
        "ARG_OF_PERICENTER": 274.5016,
        "MEAN_ANOMALY": 85.5694,
        "EPHEMERIS_TYPE": 0,
        "CLASSIFICATION_TYPE": "U",
        "NORAD_CAT_ID": 56378,
        "ELEMENT_SET_NO": 999,
        "REV_AT_EPOCH": 17327,
        "BSTAR": 0.000028926,
        "MEAN_MOTION_DOT": 0.00000534,
        "MEAN_MOTION_DDOT": 0
      },
      "source": "celestrak",
      "source_url": "https://celestrak.org/NORAD/elements/gp.php?NAME=STARLINK&FORMAT=JSON",
      "catalog_fingerprint": "77a8ac15"
    },
    {
      "satellite_id": "P63-S18",
      "norad_id": 57772,
      "satellite_name": "STARLINK-30354",
      "cospar_id": "2023-134B",
      "shell_id": "starlink-real-43deg-490km",
      "plane_id": 62,
      "slot_id": 17,
      "epoch": "2026-06-25T15:57:17.229600",
      "inclination": 43.0027,
      "raan": 307.8147,
      "eccentricity": 0.0001241,
      "argument_of_perigee": 261.73900000000003,
      "mean_anomaly": 98.33209999999997,
      "mean_motion": 15.27581718,
      "bstar": 0.000052863,
      "status": "active",
      "raw_omm": {
        "OBJECT_NAME": "STARLINK-30354",
        "OBJECT_ID": "2023-134B",
        "EPOCH": "2026-06-25T15:57:17.229600",
        "MEAN_MOTION": 15.27581718,
        "ECCENTRICITY": 0.0001241,
        "INCLINATION": 43.0027,
        "RA_OF_ASC_NODE": 307.8147,
        "ARG_OF_PERICENTER": 261.739,
        "MEAN_ANOMALY": 98.3321,
        "EPHEMERIS_TYPE": 0,
        "CLASSIFICATION_TYPE": "U",
        "NORAD_CAT_ID": 57772,
        "ELEMENT_SET_NO": 999,
        "REV_AT_EPOCH": 15598,
        "BSTAR": 0.000052863,
        "MEAN_MOTION_DOT": 0.00001193,
        "MEAN_MOTION_DDOT": 0
      },
      "source": "celestrak",
      "source_url": "https://celestrak.org/NORAD/elements/gp.php?NAME=STARLINK&FORMAT=JSON",
      "catalog_fingerprint": "77a8ac15"
    },
    {
      "satellite_id": "P63-S19",
      "norad_id": 59332,
      "satellite_name": "STARLINK-31594",
      "cospar_id": "2024-057N",
      "shell_id": "starlink-real-43deg-490km",
      "plane_id": 62,
      "slot_id": 18,
      "epoch": "2026-06-25T17:48:14.804064",
      "inclination": 43.0042,
      "raan": 308.15149999999994,
      "eccentricity": 0.0001059,
      "argument_of_perigee": 286.1938,
      "mean_anomaly": 73.87970000000001,
      "mean_motion": 15.27591801,
      "bstar": 0.00013747,
      "status": "active",
      "raw_omm": {
        "OBJECT_NAME": "STARLINK-31594",
        "OBJECT_ID": "2024-057N",
        "EPOCH": "2026-06-25T17:48:14.804064",
        "MEAN_MOTION": 15.27591801,
        "ECCENTRICITY": 0.0001059,
        "INCLINATION": 43.0042,
        "RA_OF_ASC_NODE": 308.1515,
        "ARG_OF_PERICENTER": 286.1938,
        "MEAN_ANOMALY": 73.8797,
        "EPHEMERIS_TYPE": 0,
        "CLASSIFICATION_TYPE": "U",
        "NORAD_CAT_ID": 59332,
        "ELEMENT_SET_NO": 999,
        "REV_AT_EPOCH": 12623,
        "BSTAR": 0.00013747,
        "MEAN_MOTION_DOT": 0.00003524,
        "MEAN_MOTION_DDOT": 0
      },
      "source": "celestrak",
      "source_url": "https://celestrak.org/NORAD/elements/gp.php?NAME=STARLINK&FORMAT=JSON",
      "catalog_fingerprint": "77a8ac15"
    },
    {
      "satellite_id": "P63-S20",
      "norad_id": 59333,
      "satellite_name": "STARLINK-31572",
      "cospar_id": "2024-057P",
      "shell_id": "starlink-real-43deg-490km",
      "plane_id": 62,
      "slot_id": 19,
      "epoch": "2026-06-25T17:51:56.897856",
      "inclination": 43.0033,
      "raan": 308.16920000000005,
      "eccentricity": 0.0000995,
      "argument_of_perigee": 273.17650000000003,
      "mean_anomaly": 86.89729999999997,
      "mean_motion": 15.27579191,
      "bstar": 0.000020662,
      "status": "active",
      "raw_omm": {
        "OBJECT_NAME": "STARLINK-31572",
        "OBJECT_ID": "2024-057P",
        "EPOCH": "2026-06-25T17:51:56.897856",
        "MEAN_MOTION": 15.27579191,
        "ECCENTRICITY": 0.0000995,
        "INCLINATION": 43.0033,
        "RA_OF_ASC_NODE": 308.1692,
        "ARG_OF_PERICENTER": 273.1765,
        "MEAN_ANOMALY": 86.8973,
        "EPHEMERIS_TYPE": 0,
        "CLASSIFICATION_TYPE": "U",
        "NORAD_CAT_ID": 59333,
        "ELEMENT_SET_NO": 999,
        "REV_AT_EPOCH": 12623,
        "BSTAR": 0.000020662,
        "MEAN_MOTION_DOT": 0.00000307,
        "MEAN_MOTION_DDOT": 0
      },
      "source": "celestrak",
      "source_url": "https://celestrak.org/NORAD/elements/gp.php?NAME=STARLINK&FORMAT=JSON",
      "catalog_fingerprint": "77a8ac15"
    },
    {
      "satellite_id": "P63-S21",
      "norad_id": 56385,
      "satellite_name": "STARLINK-6173",
      "cospar_id": "2023-061M",
      "shell_id": "starlink-real-43deg-490km",
      "plane_id": 62,
      "slot_id": 20,
      "epoch": "2026-06-25T16:10:19.121088",
      "inclination": 43.0043,
      "raan": 308.131,
      "eccentricity": 0.0000625,
      "argument_of_perigee": 272.56500000000005,
      "mean_anomaly": 87.51300000000003,
      "mean_motion": 15.27530171,
      "bstar": 0.00035703,
      "status": "active",
      "raw_omm": {
        "OBJECT_NAME": "STARLINK-6173",
        "OBJECT_ID": "2023-061M",
        "EPOCH": "2026-06-25T16:10:19.121088",
        "MEAN_MOTION": 15.27530171,
        "ECCENTRICITY": 0.0000625,
        "INCLINATION": 43.0043,
        "RA_OF_ASC_NODE": 308.131,
        "ARG_OF_PERICENTER": 272.565,
        "MEAN_ANOMALY": 87.513,
        "EPHEMERIS_TYPE": 0,
        "CLASSIFICATION_TYPE": "U",
        "NORAD_CAT_ID": 56385,
        "ELEMENT_SET_NO": 999,
        "REV_AT_EPOCH": 17326,
        "BSTAR": 0.00035703,
        "MEAN_MOTION_DOT": 0.00009561,
        "MEAN_MOTION_DDOT": 0
      },
      "source": "celestrak",
      "source_url": "https://celestrak.org/NORAD/elements/gp.php?NAME=STARLINK&FORMAT=JSON",
      "catalog_fingerprint": "77a8ac15"
    },
    {
      "satellite_id": "P63-S22",
      "norad_id": 58007,
      "satellite_name": "STARLINK-30527",
      "cospar_id": "2023-153S",
      "shell_id": "starlink-real-43deg-490km",
      "plane_id": 62,
      "slot_id": 21,
      "epoch": "2026-06-25T16:03:01.998432",
      "inclination": 43.0049,
      "raan": 308.5729,
      "eccentricity": 0.0000479,
      "argument_of_perigee": 262.26649999999995,
      "mean_anomaly": 97.8132,
      "mean_motion": 15.27508296,
      "bstar": 0.00059733,
      "status": "active",
      "raw_omm": {
        "OBJECT_NAME": "STARLINK-30527",
        "OBJECT_ID": "2023-153S",
        "EPOCH": "2026-06-25T16:03:01.998432",
        "MEAN_MOTION": 15.27508296,
        "ECCENTRICITY": 0.0000479,
        "INCLINATION": 43.0049,
        "RA_OF_ASC_NODE": 308.5729,
        "ARG_OF_PERICENTER": 262.2665,
        "MEAN_ANOMALY": 97.8132,
        "EPHEMERIS_TYPE": 0,
        "CLASSIFICATION_TYPE": "U",
        "NORAD_CAT_ID": 58007,
        "ELEMENT_SET_NO": 999,
        "REV_AT_EPOCH": 15397,
        "BSTAR": 0.00059733,
        "MEAN_MOTION_DOT": 0.00016175,
        "MEAN_MOTION_DDOT": 0
      },
      "source": "celestrak",
      "source_url": "https://celestrak.org/NORAD/elements/gp.php?NAME=STARLINK&FORMAT=JSON",
      "catalog_fingerprint": "77a8ac15"
    }
  ]
}